467P/LINEAR-Grauer,e,2.4791,43.2649,267.6992,5.828071,0.0700514,0.05475344,54.4606,01/15.0/2025,2000,g  9.0,4.0
# From MPEC 2024-O39
468P/SidingSpring,e,50.4494,356.1243,322.5886,7.120310,0.0518747,0.44520143,21.8275,01/15.0/2025,2000,g 11.5,4.0
# From MPEC 2025-A40
469P/PANSTARRS,e,20.1733,178.9669,43.4985,4.341611,0.1089501,0.30784159,324.3245,01/15.0/2025,2000,g 13.5,4.0
# From MPEC 2024-R10
470P/PANSTARRS,e,8.8444,246.1741,151.7603,4.467110,0.1043912,0.38962825,41.2273,01/15.0/2025,2000,g 15.5,4.0
# From MPEC 2024-GJ3
471P/,e,4.7959,283.3075,94.8618,5.700927,0.0724079,0.62792332,28.3838,01/15.0/2025,2000,g 12.0,4.0
# From MPEC 2025-AH4
472P/NEAT-LINEAR,e,10.8250,205.9080,218.8852,7.804331,0.0452065,0.56579529,8.3296,01/15.0/2025,2000,g 10.5,4.0
# From MPEC 2024-MB8
473P/NEAT,e,56.9045,22.1872,42.9290,7.971451,0.0437923,0.82361314,14.1778,01/15.0/2025,2000,g 13.5,4.0
# From MPEC 2024-B74
474P/Hogan,e,1.0970,26.7475,11.2631,3.130362,0.1779558,0.18818534,97.7381,01/15.0/2025,2000,g 15.5,4.0
# From MPEC 2024-O39
475P/Spacewatch-LINEAR,e,14.5239,147.3668,40.3933,7.314179,0.0498260,0.44253471,11.3323,01/15.0/2025,2000,g 11.0,4.0
# From MPEC 2025-A40
476P/PANSTARRS,e,19.0045,57.0531,46.7415,4.777405,0.0943878,0.34621733,8.5369,01/15.0/2025,2000,g 12.5,4.0
# From MPEC 2024-GJ3
477P/PANSTARRS,e,8.9140,59.1522,305.9176,3.003078,0.1893888,0.41747792,72.9900,01/15.0/2025,2000,g 14.5,4.0
# From MPEC 2024-L77
478P/ATLAS,e,12.5245,127.2669,13.2112,3.647036,0.1415123,0.34365551,36.5006,01/15.0/2025,2000,g 13.5,4.0
# From MPEC 2024-PC5
479P/Elenin,e,15.3993,295.8319,263.5155,5.623141,0.0739155,0.77885843,18.8306,01/15.0/2025,2000,g 15.0,4.0
# From MPEC 2024-GJ3
480P/PANSTARRS,e,13.7174,229.9779,214.3565,4.609680,0.0995859,0.24641315,62.9889,01/15.0/2025,2000,g 12.0,4.0
# From MPEC 2025-A40
481P/Lemmon-PANSTARRS,e,6.0826,93.5504,356.7566,4.680399,0.0973374,0.34350174,54.1053,01/15.0/2025,2000,g 13.5,4.0
# From MPEC 2024-JU4
482P/PANSTARRS,e,24.4856,126.0839,339.6989,3.756191,0.1353887,0.49238079,80.2707,01/15.0/2025,2000,g 13.5,4.0
# From MPEC 2025-AH4
483P-A/PANSTARRS,e,14.2280,199.5533,48.7136,3.192430,0.1727913,0.22355041,182.5805,01/15.0/2025,2000,g 16.5,4.0
# From MPEC 2024-R10
483P-B/PANSTARRS,e,14.2290,199.5533,48.6927,3.192364,0.1727967,0.22350068,182.6213,01/15.0/2025,2000,g 17.0,4.0
# From MPEC 2024-DD5
484P/Spacewatch,e,14.4750,265.3928,240.7732,3.757522,0.1353168,0.43275046,204.2847,01/15.0/2025,2000,g 16.0,4.0
# From MPEC 2024-JU4
485P/Sheppard-Tholen,e,10.0161,261.6439,196.0628,6.849288,0.0549839,0.41717894,27.9860,01/15.0/2025,2000,g 13.0,4.0
# From MPEC 2024-R10
486P/Leonard,e,2.2095,219.0275,93.9480,3.628370,0.1426056,0.36364731,348.7545,01/15.0/2025,2000,g 14.5,4.0
# From MPEC 2025-AH4
487P/SidingSpring,e,39.3676,49.2094,0.8600,5.165809,0.0839453,0.64866128,7.2495,01/15.0/2025,2000,g 13.5,4.0
# From MPEC 2024-UA9
488P/NEAT-PANSTARRS,e,11.3641,324.0554,1.5063,3.734543,0.1365677,0.55064364,32.8808,01/15.0/2025,2000,g 16.5,4.0
# From MPEC 2024-Q14
489P/Denning,e,4.0269,20.6115,109.4435,4.422328,0.1059809,0.64702269,325.7290,01/15.0/2025,2000,g 15.5,4.0
# From MPEC 2024-YC7
490P/ATLAS,e,12.2664,307.6079,332.5228,3.029627,0.1869047,0.64722776,20.3381,01/15.0/2025,2000,g 21.0,4.0
# From MPEC 2024-UQ8
491P/Spacewatch-PANSTARRS,e,9.3656,311.6871,298.9072,5.013436,0.0878013,0.25866226,11.4856,01/15.0/2025,2000,g  9.5,4.0
# From MPEC 2025-AE4
492P/LINEAR,e,11.4003,11.3103,40.9945,5.763791,0.0712265,0.69080960,12.7143,01/15.0/2025,2000,g 15.0,4.0
# From MPEC 2025-AH4
493P/LONEOS,e,24.1154,1.1141,83.1920,7.161722,0.0514254,0.46612833,341.2733,01/15.0/2025,2000,g 12.0,2.0
# From MPEC 2024-RQ6
494P/PANSTARRS,e,7.7898,245.0453,48.8781,3.794858,0.1333247,0.35692724,30.5286,01/15.0/2025,2000,g 16.0,4.0
# From MPEC 2025-A40
495P/Christensen,e,26.3540,291.6237,141.3386,4.753659,0.0950960,0.27213813,333.3298,01/15.0/2025,2000,g 11.5,4.0
# From MPEC 2025-AH4
496P/Hill,e,14.8148,63.5881,42.2500,6.103498,0.0653636,0.73440859,356.4516,01/15.0/2025,2000,g 14.0,4.0
# From MPEC 2025-AE4
497P/Spacewatch-PANSTARRS,e,10.4384,40.3853,32.4211,5.616615,0.0740444,0.63052277,357.6759,01/15.0/2025,2000,g 17.5,4.0
# From MPC107687
1I/`Oumuamua,h,09/09.4886/2017,122.6778,24.5997,241.6845,1.199252,0.255240,2000,23.0,2.0
# From MPEC 2023-L37
2I/Borisov,h,12/08.5548/2019,44.0527,308.1480,209.1251,3.356633,2.006548,2000,11.0,4.0
